ARABSAT-7B (BADR-8)     
1 56757U 23075A   26163.77683866  .00000158  00000+0  00000+0 0  9998
2 56757   0.0753  26.9658 0004678 354.8356 184.9762  1.00270714 11070
NVS-01 (IRNSS-1J)       
1 56759U 23076A   26164.64499600 -.00000323  00000+0  00000+0 0  9994
2 56759   2.1747 244.5154 0003175  37.0008 342.1620  1.00266371 11088
NUSANTARA TIGA (SATRIA) 
1 57045U 23086A   26164.55600263 -.00000224  00000+0  00000+0 0  9993
2 57045   0.0356 349.2221 0003255 358.6655 260.1447  1.00268112  9726
H2SAT (HEINRICH HERTZ)  
1 57213U 23093A   26163.62136929  .00000016  00000+0  00000+0 0  9996
2 57213   0.0583 109.5172 0000719  64.8550 310.9708  1.00270393 10875
SYRACUSE 4B             
1 57214U 23093B   26163.69126538  .00000000  00000+0  00000+0 0  9992
2 57214   0.0241   7.3348 0000312 232.7039 263.4059  1.00270024  6927
JUPITER 3 (ECHOSTAR 24) 
1 57479U 23108A   26163.53990186  .00000000  00000+0  00000+0 0  9993
2 57479   0.0212 345.4101 0001316  94.0166 280.5881  1.00270301 10595
GALAXY 37 (G-37)        
1 57493U 23112A   26164.59419459  .00000059  00000+0  00000+0 0  9994
2 57493   0.0167  45.7807 0001733  34.0349 269.0002  1.00270868 10509
LUDI TANCE-4 01A        
1 57624U 23120A   26163.11969530 -.00000152  00000+0  00000+0 0  9991
2 57624  15.1051 194.0947 0000954  65.5253 133.6374  1.00269818 10493
ZHONGXING-6E            
1 58253U 23172A   26164.64222265 -.00000350  00000+0  00000+0 0  9993
2 58253   0.0306  83.6281 0002680 355.7878 169.2574  1.00273200  9627
YAOGAN-41               
1 58582U 23197A   26164.64378266 -.00000350  00000+0  00000+0 0  9998
2 58582   3.1355 313.0835 0014012 193.9176 109.9242  1.00271976  9283
OVZON-3                 
1 58698U 24003A   26164.41730126  .00000000  00000+0  00000+0 0  9996
2 58698   0.0119  10.1116 0000292 223.2278 238.3034  1.00271107  7412
INSAT-3DS               
1 58990U 24033A   26164.63561111 -.00000145  00000+0  00000+0 0  9995
2 58990   0.0432 129.0798 0001005 305.7541 138.0330  1.00271778 47034
MERAH PUTIH 2           
1 58995U 24035A   26164.64170265 -.00000347  00000+0  00000+0 0  9993
2 58995   0.0162  25.1434 0000887  71.4120 149.3719  1.00271543  8559
TJS-11                  
1 59020U 24037A   26160.79926416 -.00000338  00000+0  00000+0 0  9994
2 59020   4.2095 326.9725 0006664 186.9347 143.4309  1.00155909  8509
HULIANWAN GAOGUI-01 (H*)
1 59069U 24040A   26164.05566706  .00000169  00000+0  00000+0 0  9997
2 59069   0.0680 328.6919 0002788  68.0201 278.2912  1.00269151  7288
EUTELSAT 36D            
1 59346U 24059A   26164.27001846  .00000000  00000+0  00000+0 0  9992
2 59346   0.0243  14.1263 0000276 224.1276 156.4189  1.00268320  8109
PAKSAT-MM1              
1 59915U 24104A   26163.98528252  .00000167  00000+0  00000+0 0  9991
2 59915   0.0389  97.9263 0001745 343.9563 212.3309  1.00275305  7489
ASTRA 1P (SES-24)       
1 60086U 24115A   26163.69637874  .00000134  00000+0  00000+0 0  9997
2 60086   0.0591 359.7747 0000980 355.9325 175.2203  1.00268824  7152
GOES 19                 
1 60133U 24119A   26164.60442131 -.00000237  00000+0  00000+0 0  9991
2 60133   0.0072  95.7140 0000498  78.4184 230.1848  1.00270059  6920
ZHONGXING-3A            
1 60179U 24122A   26163.71265463 -.00000299  00000+0  00000+0 0  9995
2 60179   0.0470 130.5107 0001234 342.7597 145.9109  1.00270566  7261
TURKSAT 6A              
1 60233U 24127A   26164.05731374  .00000160  00000+0  00000+0 0  9994
2 60233   0.0534 210.8035 0001329 278.4128 194.8159  1.00268029  6971
ZHONGXING-4A            
1 60606U 24151A   26164.64274265 -.00000350  00000+0  00000+0 0  9993
2 60606   1.3238 270.8841 0000461 240.1488 100.4759  1.00266504  6719
HULIANWAN GAOGUI-03 (H*)
1 61503U 24181A   26163.89115398 -.00000228  00000+0  00000+0 0  9994
2 61503   0.0451 355.9839 0000978  95.1785  53.7263  1.00272983  6787
DSN-3 (KIRAMEKI-3)      
1 61733U 24198A   26164.55600263 -.00000239  00000+0  00000+0 0  9993
2 61733   0.0010 353.7331 0000966 180.2371  72.0971  1.00268344  5886
KOREASAT 6A             
1 61910U 24206A   26163.85808449  .00000000  00000+0  00000+0 0  9993
2 61910   0.0162 349.6036 0000587  68.4248 268.0643  1.00268143  5796
OPTUS-X (ADS-01)        
1 62006U 24212A   26164.43639296 -.00000132  00000+0  00000+0 0  9991
2 62006   0.0182 358.7076 0001614 126.5656  89.9745  1.00270036  5721
GSAT-N2 (GSAT-20)       
1 62028U 24214A   26164.56154595 -.00000008  00000+0  00000+0 0  9997
2 62028   0.0417 129.8961 0001809 303.4184  98.6972  1.00269222  5863
SXM-9                   
1 62259U 24234A   26163.96081638 -.00000192  00000+0  00000+0 0  9999
2 62259   0.0145 331.4615 0004993 342.5980 207.9610  1.00270527  5537
TJS-12                  
1 62374U 24246A   26164.55600263 -.00000219  00000+0  00000+0 0  9997
2 62374   0.6788 298.7854 0002044  81.0852 228.7207  1.00270436  5523
