OBJECT_NAME,OBJECT_ID,EPOCH,MEAN_MOTION,ECCENTRICITY,INCLINATION,RA_OF_ASC_NODE,ARG_OF_PERICENTER,MEAN_ANOMALY,EPHEMERIS_TYPE,CLASSIFICATION_TYPE,NORAD_CAT_ID,ELEMENT_SET_NO,REV_AT_EPOCH,BSTAR,MEAN_MOTION_DOT,MEAN_MOTION_DDOT
ARABSAT-7B (BADR-8),2023-075A,2026-06-12T18:38:38.860224,1.00270714,.00046781,0.0753,26.9658,354.8356,184.9762,0,U,56757,999,1107,0,.158E-5,0
NVS-01 (IRNSS-1J),2023-076A,2026-06-13T15:28:47.654400,1.00266371,.00031756,2.1747,244.5154,37.0008,342.1620,0,U,56759,999,1108,0,-.323E-5,0
NUSANTARA TIGA (SATRIA),2023-086A,2026-06-13T13:20:38.627232,1.00268112,.00032553,0.0356,349.2221,358.6655,260.1447,0,U,57045,999,972,0,-.224E-5,0
H2SAT (HEINRICH HERTZ),2023-093A,2026-06-12T14:54:46.306656,1.00270393,.00007199,0.0583,109.5172,64.8550,310.9708,0,U,57213,999,1087,0,.16E-6,0
SYRACUSE 4B,2023-093B,2026-06-12T16:35:25.328832,1.00270024,.00003127,0.0241,7.3348,232.7039,263.4059,0,U,57214,999,692,0,0,0
JUPITER 3 (ECHOSTAR 24),2023-108A,2026-06-12T12:57:27.520704,1.00270301,.0001316,0.0212,345.4101,94.0166,280.5881,0,U,57479,999,1059,0,0,0
GALAXY 37 (G-37),2023-112A,2026-06-13T14:15:38.412576,1.00270868,.0001733,0.0167,45.7807,34.0349,269.0002,0,U,57493,999,1050,0,.59E-6,0
LUDI TANCE-4 01A,2023-120A,2026-06-12T02:52:21.673920,1.00269818,.0000954,15.1051,194.0947,65.5253,133.6374,0,U,57624,999,1049,0,-.152E-5,0
ZHONGXING-6E,2023-172A,2026-06-13T15:24:48.036960,1.00273200,.00026802,0.0306,83.6281,355.7878,169.2574,0,U,58253,999,962,0,-.35E-5,0
YAOGAN-41,2023-197A,2026-06-13T15:27:02.821824,1.00271976,.00140128,3.1355,313.0835,193.9176,109.9242,0,U,58582,999,928,0,-.35E-5,0
OVZON-3,2024-003A,2026-06-13T10:00:54.828864,1.00271107,.00002921,0.0119,10.1116,223.2278,238.3034,0,U,58698,999,741,0,0,0
INSAT-3DS,2024-033A,2026-06-13T15:15:16.799904,1.00271778,.00010053,0.0432,129.0798,305.7541,138.0330,0,U,58990,999,4703,0,-.145E-5,0
MERAH PUTIH 2,2024-035A,2026-06-13T15:24:03.108960,1.00271543,.00008879,0.0162,25.1434,71.4120,149.3719,0,U,58995,999,855,0,-.347E-5,0
TJS-11,2024-037A,2026-06-09T19:10:56.423424,1.00155909,.0006664,4.2095,326.9725,186.9347,143.4309,0,U,59020,999,850,0,-.338E-5,0
HULIANWAN GAOGUI-01 (HG-01),2024-040A,2026-06-13T01:20:09.633984,1.00269151,.00027881,0.0680,328.6919,68.0201,278.2912,0,U,59069,999,728,0,.169E-5,0
EUTELSAT 36D,2024-059A,2026-06-13T06:28:49.594944,1.00268320,.00002767,0.0243,14.1263,224.1276,156.4189,0,U,59346,999,810,0,0,0
PAKSAT-MM1,2024-104A,2026-06-12T23:38:48.409728,1.00275305,.00017457,0.0389,97.9263,343.9563,212.3309,0,U,59915,999,748,0,.167E-5,0
ASTRA 1P (SES-24),2024-115A,2026-06-12T16:42:47.123136,1.00268824,.00009801,0.0591,359.7747,355.9325,175.2203,0,U,60086,999,715,0,.134E-5,0
GOES 19,2024-119A,2026-06-13T14:30:22.001184,1.00270059,.00004989,0.0072,95.7140,78.4184,230.1848,0,U,60133,999,692,0,-.237E-5,0
ZHONGXING-3A,2024-122A,2026-06-12T17:06:13.360032,1.00270566,.0001234,0.0470,130.5107,342.7597,145.9109,0,U,60179,999,726,0,-.299E-5,0
TURKSAT 6A,2024-127A,2026-06-13T01:22:31.907136,1.00268029,.0001329,0.0534,210.8035,278.4128,194.8159,0,U,60233,999,697,0,.16E-5,0
ZHONGXING-4A,2024-151A,2026-06-13T15:25:32.964960,1.00266504,.00004615,1.3238,270.8841,240.1488,100.4759,0,U,60606,999,671,0,-.35E-5,0
HULIANWAN GAOGUI-03 (HG-03),2024-181A,2026-06-12T21:23:15.703872,1.00272983,.00009784,0.0451,355.9839,95.1785,53.7263,0,U,61503,999,678,0,-.228E-5,0
DSN-3 (KIRAMEKI-3),2024-198A,2026-06-13T13:20:38.627232,1.00268344,.00009664,0.0010,353.7331,180.2371,72.0971,0,U,61733,999,588,0,-.239E-5,0
KOREASAT 6A,2024-206A,2026-06-12T20:35:38.499936,1.00268143,.00005877,0.0162,349.6036,68.4248,268.0643,0,U,61910,999,579,0,0,0
OPTUS-X (ADS-01),2024-212A,2026-06-13T10:28:24.351744,1.00270036,.00016144,0.0182,358.7076,126.5656,89.9745,0,U,62006,999,572,0,-.132E-5,0
GSAT-N2 (GSAT-20),2024-214A,2026-06-13T13:28:37.570080,1.00269222,.00018096,0.0417,129.8961,303.4184,98.6972,0,U,62028,999,586,0,-.8E-7,0
SXM-9,2024-234A,2026-06-12T23:03:34.535232,1.00270527,.00049933,0.0145,331.4615,342.5980,207.9610,0,U,62259,999,553,0,-.192E-5,0
TJS-12,2024-246A,2026-06-13T13:20:38.627232,1.00270436,.00020441,0.6788,298.7854,81.0852,228.7207,0,U,62374,999,552,0,-.219E-5,0
